{"type": "FeatureCollection", "features": [ {"type": "Feature", "properties": {"norad_id": 31934, "name": "FENGYUN 1C DEB", "group": "fengyun-1c-debris", "lat": -81.00027137938116, "lon": 132.5224892922289, "alt_km": 529.9315618820128, "timestamp": "2025-12-10T09:57:44.984208+00:00", "meta": {"OBJECT_NAME": "FENGYUN 1C DEB", "OBJECT_ID": "1999-025CMK", "EPOCH": "2025-12-04T09:16:56.352576", "MEAN_MOTION": 15.05606214, "ECCENTRICITY": 0.0038121, "INCLINATION": 98.8816, "RA_OF_ASC_NODE": 26.4564, "ARG_OF_PERICENTER": 260.5868, "MEAN_ANOMALY": 99.1044, "EPHEMERIS_TYPE": 0, "CLASSIFICATION_TYPE": "U", "NORAD_CAT_ID": 31934, "ELEMENT_SET_NO": 999, "REV_AT_EPOCH": 60717, "BSTAR": 0.0071095, "MEAN_MOTION_DOT": 0.00105581, "MEAN_MOTION_DDOT": 0}, "tle": {"line1": "1 31934U 99025CMK 25338.38676334  .00105581  00000+0  71095-2 0  9999", "line2": "2 31934  98.8816  26.4564 0038121 260.5868  99.1044 15.05606214607177"}}, "geometry": {"type": "Point", "coordinates": [132.5224892922289, -81.00027137938116]}}, {"type": "Feature", "properties": {"norad_id": 31937, "name": "FENGYUN 1C DEB", "group": "fengyun-1c-debris", "lat": -6.261602083110741, "lon": -107.36635825363383, "alt_km": 692.1960766944521, "timestamp": "2025-12-10T09:57:44.984218+00:00", "meta": {"OBJECT_NAME": "FENGYUN 1C DEB", "OBJECT_ID": "1999-025CMN", "EPOCH": "2025-12-06T23:52:27.149088", "MEAN_MOTION": 14.78022374, "ECCENTRICITY": 0.0162921, "INCLINATION": 99.2561, "RA_OF_ASC_NODE": 69.7316, "ARG_OF_PERICENTER": 315.3928, "MEAN_ANOMALY": 43.4262, "EPHEMERIS_TYPE": 0, "CLASSIFICATION_TYPE": "U", "NORAD_CAT_ID": 31937, "ELEMENT_SET_NO": 999, "REV_AT_EPOCH": 65984, "BSTAR": 0.0011794166, "MEAN_MOTION_DOT": 0.00010567, "MEAN_MOTION_DDOT": 0}, "tle": {"line1": "1 31937U 99025CMN 25340.99475867  .00010567  00000+0  11794-2 0  9999", "line2": "2 31937  99.2561  69.7316 0162921 315.3928  43.4262 14.78022374659842"}}, "geometry": {"type": "Point", "coordinates": [-107.36635825363383, -6.261602083110741]}}, {"type": "Feature", "properties": {"norad_id": 31938, "name": "FENGYUN 1C DEB", "group": "fengyun-1c-debris", "lat": -7.605209828539461, "lon": 16.726834984857998, "alt_km": 566.6447912752074, "timestamp": "2025-12-10T09:57:44.984228+00:00", "meta": {"OBJECT_NAME": "FENGYUN 1C DEB", "OBJECT_ID": "1999-025CMP", "EPOCH": "2025-12-09T13:07:20.802720", "MEAN_MOTION": 14.95555137, "ECCENTRICITY": 0.015288, "INCLINATION": 98.9293, "RA_OF_ASC_NODE": 14.5351, "ARG_OF_PERICENTER": 76.4008, "MEAN_ANOMALY": 285.4184, "EPHEMERIS_TYPE": 0, "CLASSIFICATION_TYPE": "U", "NORAD_CAT_ID": 31938, "ELEMENT_SET_NO": 999, "REV_AT_EPOCH": 99088, "BSTAR": 0.00054773, "MEAN_MOTION_DOT": 7.608e-05, "MEAN_MOTION_DDOT": 0}, "tle": {"line1": "1 31938U 99025CMP 25343.54676855  .00007608  00000+0  54773-3 0  9991", "line2": "2 31938  98.9293  14.5351 0152880  76.4008 285.4184 14.95555137990885"}}, "geometry": {"type": "Point", "coordinates": [16.726834984857998, -7.605209828539461]}}, {"type": "Feature", "properties": {"norad_id": 31944, "name": "FENGYUN 1C DEB", "group": "fengyun-1c-debris", "lat": -21.654875940673957, "lon": -51.83234072303349, "alt_km": 966.3364142727951, "timestamp": "2025-12-10T09:57:44.984238+00:00", "meta": {"OBJECT_NAME": "FENGYUN 1C DEB", "OBJECT_ID": "1999-025CMV", "EPOCH": "2025-12-05T05:25:34.154400", "MEAN_MOTION": 14.11765981, "ECCENTRICITY": 0.01519652, "INCLINATION": 99.203, "RA_OF_ASC_NODE": 126.5353, "ARG_OF_PERICENTER": 25.3933, "MEAN_ANOMALY": 98.7212, "EPHEMERIS_TYPE": 0, "CLASSIFICATION_TYPE": "U", "NORAD_CAT_ID": 31944, "ELEMENT_SET_NO": 999, "REV_AT_EPOCH": 62804, "BSTAR": 0.00085144569, "MEAN_MOTION_DOT": 1.684e-05, "MEAN_MOTION_DDOT": 0}, "tle": {"line1": "1 31944U 99025CMV 25339.22608975  .00001684  00000+0  85145-3 0  9991", "line2": "2 31944  99.2030 126.5353 0151965  25.3933  98.7212 14.11765981628045"}}, "geometry": {"type": "Point", "coordinates": [-51.83234072303349, -21.654875940673957]}}, {"type": "Feature", "properties": {"norad_id": 31945, "name": "FENGYUN 1C DEB", "group": "fengyun-1c-debris", "lat": 64.15792540867174, "lon": -100.25820556938436, "alt_km": 859.9162369054384, "timestamp": "2025-12-10T09:57:44.984248+00:00", "meta": {"OBJECT_NAME": "FENGYUN 1C DEB", "OBJECT_ID": "1999-025CMW", "EPOCH": "2025-12-05T04:21:02.992896", "MEAN_MOTION": 14.20730618, "ECCENTRICITY": 0.00605162, "INCLINATION": 98.9642, "RA_OF_ASC_NODE": 55.4147, "ARG_OF_PERICENTER": 309.2017, "MEAN_ANOMALY": 50.3794, "EPHEMERIS_TYPE": 0, "CLASSIFICATION_TYPE": "U", "NORAD_CAT_ID": 31945, "ELEMENT_SET_NO": 999, "REV_AT_EPOCH": 95088, "BSTAR": 0.0029640312, "MEAN_MOTION_DOT": 6.47e-05, "MEAN_MOTION_DDOT": 0}, "tle": {"line1": "1 31945U 99025CMW 25339.18128464  .00006470  00000+0  29640-2 0  9992", "line2": "2 31945  98.9642  55.4147 0060516 309.2017  50.3794 14.20730618950888"}}, "geometry": {"type": "Point", "coordinates": [-100.25820556938436, 64.15792540867174]}}, {"type": "Feature", "properties": {"norad_id": 31946, "name": "FENGYUN 1C DEB", "group": "fengyun-1c-debris", "lat": 24.377856698271938, "lon": 40.571088289797636, "alt_km": 785.957913481282, "timestamp": "2025-12-10T09:57:44.984258+00:00", "meta": {"OBJECT_NAME": "FENGYUN 1C DEB", "OBJECT_ID": "1999-025CMX", "EPOCH": "2025-12-09T10:06:45.402048", "MEAN_MOTION": 14.16409764, "ECCENTRICITY": 0.00827485, "INCLINATION": 98.8978, "RA_OF_ASC_NODE": 43.6488, "ARG_OF_PERICENTER": 59.5267, "MEAN_ANOMALY": 301.4047, "EPHEMERIS_TYPE": 0, "CLASSIFICATION_TYPE": "U", "NORAD_CAT_ID": 31946, "ELEMENT_SET_NO": 999, "REV_AT_EPOCH": 63961, "BSTAR": 0.0018182572, "MEAN_MOTION_DOT": 3.694e-05, "MEAN_MOTION_DDOT": 0}, "tle": {"line1": "1 31946U 99025CMX 25343.42135882  .00003694  00000+0  18183-2 0  9992", "line2": "2 31946  98.8978  43.6488 0082748  59.5267 301.4047 14.16409764639616"}}, "geometry": {"type": "Point", "coordinates": [40.571088289797636, 24.377856698271938]}}, {"type": "Feature", "properties": {"norad_id": 31948, "name": "FENGYUN 1C DEB", "group": "fengyun-1c-debris", "lat": -50.61907828905446, "lon": 56.30106921147194, "alt_km": 801.8128617381835, "timestamp": "2025-12-10T09:57:44.984268+00:00", "meta": {"OBJECT_NAME": "FENGYUN 1C DEB", "OBJECT_ID": "1999-025CMZ", "EPOCH": "2025-12-08T09:44:13.179840", "MEAN_MOTION": 14.28248279, "ECCENTRICITY": 0.00237817, "INCLINATION": 99.3918, "RA_OF_ASC_NODE": 42.5089, "ARG_OF_PERICENTER": 35.7447, "MEAN_ANOMALY": 26.9919, "EPHEMERIS_TYPE": 0, "CLASSIFICATION_TYPE": "U", "NORAD_CAT_ID": 31948, "ELEMENT_SET_NO": 999, "REV_AT_EPOCH": 94966, "BSTAR": 0.0021945448, "MEAN_MOTION_DOT": 5.441e-05, "MEAN_MOTION_DDOT": 0}, "tle": {"line1": "1 31948U 99025CMZ 25342.40570810  .00005441  00000+0  21945-2 0  9997", "line2": "2 31948  99.3918  42.5089 0023781  35.7447  26.9919 14.28248279949662"}}, "geometry": {"type": "Point", "coordinates": [56.30106921147194, -50.61907828905446]}}, {"type": "Feature", "properties": {"norad_id": 31949, "name": "FENGYUN 1C DEB", "group": "fengyun-1c-debris", "lat": -44.74452328837349, "lon": 141.4400039801876, "alt_km": 752.6277465380717, "timestamp": "2025-12-10T09:57:44.984278+00:00", "meta": {"OBJECT_NAME": "FENGYUN 1C DEB", "OBJECT_ID": "1999-025CNA", "EPOCH": "2025-11-23T05:03:27.897984", "MEAN_MOTION": 14.1687356, "ECCENTRICITY": 0.01252295, "INCLINATION": 98.5419, "RA_OF_ASC_NODE": 313.4803, "ARG_OF_PERICENTER": 269.0533, "MEAN_ANOMALY": 89.6292, "EPHEMERIS_TYPE": 0, "CLASSIFICATION_TYPE": "U", "NORAD_CAT_ID": 31949, "ELEMENT_SET_NO": 999, "REV_AT_EPOCH": 95228, "BSTAR": 0.00041514195, "MEAN_MOTION_DOT": 8.56e-06, "MEAN_MOTION_DDOT": 0}, "tle": {"line1": "1 31949U 99025CNA 25327.21073956  .00000856  00000+0  41514-3 0  9999", "line2": "2 31949  98.5419 313.4803 0125229 269.0533  89.6292 14.16873560952288"}}, "geometry": {"type": "Point", "coordinates": [141.4400039801876, -44.74452328837349]}}, {"type": "Feature", "properties": {"norad_id": 31952, "name": "FENGYUN 1C DEB", "group": "fengyun-1c-debris", "lat": 75.40116551844503, "lon": 64.08932323433277, "alt_km": 767.5773358695296, "timestamp": "2025-12-10T09:57:44.984300+00:00", "meta": {"OBJECT_NAME": "FENGYUN 1C DEB", "OBJECT_ID": "1999-025CND", "EPOCH": "2025-12-08T14:38:44.812032", "MEAN_MOTION": 14.53470529, "ECCENTRICITY": 0.0114026, "INCLINATION": 98.9558, "RA_OF_ASC_NODE": 99.423, "ARG_OF_PERICENTER": 305.068, "MEAN_ANOMALY": 53.9861, "EPHEMERIS_TYPE": 0, "CLASSIFICATION_TYPE": "U", "NORAD_CAT_ID": 31952, "ELEMENT_SET_NO": 999, "REV_AT_EPOCH": 97149, "BSTAR": 0.00084251, "MEAN_MOTION_DOT": 3.77e-05, "MEAN_MOTION_DDOT": 0}, "tle": {"line1": "1 31952U 99025CND 25342.61024088  .00003770  00000+0  84251-3 0  9999", "line2": "2 31952  98.9558  99.4230 0114026 305.0680  53.9861 14.53470529971491"}}, "geometry": {"type": "Point", "coordinates": [64.08932323433277, 75.40116551844503]}}, {"type": "Feature", "properties": {"norad_id": 31955, "name": "FENGYUN 1C DEB", "group": "fengyun-1c-debris", "lat": 31.389338154064436, "lon": -144.79311262724474, "alt_km": 706.9425808660271, "timestamp": "2025-12-10T09:57:44.984310+00:00", "meta": {"OBJECT_NAME": "FENGYUN 1C DEB", "OBJECT_ID": "1999-025CNG", "EPOCH": "2025-12-09T11:24:51.253344", "MEAN_MOTION": 14.63796533, "ECCENTRICITY": 0.00431332, "INCLINATION": 99.2801, "RA_OF_ASC_NODE": 219.8756, "ARG_OF_PERICENTER": 191.1219, "MEAN_ANOMALY": 292.9335, "EPHEMERIS_TYPE": 0, "CLASSIFICATION_TYPE": "U", "NORAD_CAT_ID": 31955, "ELEMENT_SET_NO": 999, "REV_AT_EPOCH": 96509, "BSTAR": 0.0023666503, "MEAN_MOTION_DOT": 0.00012475, "MEAN_MOTION_DDOT": 0}, "tle": {"line1": "1 31955U 99025CNG 25343.47559321  .00012475  00000+0  23667-2 0  9995", "line2": "2 31955  99.2801 219.8756 0043133 191.1219 292.9335 14.63796533965099"}}, "geometry": {"type": "Point", "coordinates": [-144.79311262724474, 31.389338154064436]}}]}